STARLINK-2727           
1 48652C 21044Q   26112.33798611  .00065696  00000+0  11740-2 0  1129
2 48652  53.0506 264.0734 0000705 285.0191 299.1359 15.49390645    15
STARLINK-2720           
1 48653C 21044R   26112.32340278  .00052499  00000+0  16894-2 0  1123
2 48653  53.1588 271.0784 0000975 106.6427 334.8936 15.31654402    12
STARLINK-2657           
1 48655C 21044T   26112.32687500  .00052677  00000+0  16931-2 0  1127
2 48655  53.1582 271.1832 0001252  90.9459 344.0693 15.31691187    16
STARLINK-2701           
1 48656C 21044U   26112.22270833  .00022836  00000+0  73434-3 0  1120
2 48656  53.1599 271.5116 0001355  93.7532 229.5137 15.31690918    12
STARLINK-2734           
1 48657C 21044V   26112.23034722  .00051952  00000+0  16711-2 0  1122
2 48657  53.1599 271.5974 0000903  80.2632 233.6267 15.31667267    16
STARLINK-2647           
1 48658C 21044W   26112.22479167  .00023068  00000+0  77663-3 0  1129
2 48658  53.1597 271.6263 0001197  87.8139 226.6102 15.30215914    15
STARLINK-2717           
1 48659C 21044X   26112.27340278  .00048081  00000+0  15461-2 0  1124
2 48659  53.1590 271.2943 0001231  81.4778 212.8085 15.31678296    12
STARLINK-2726           
1 48662C 21044AA  26112.22340278  .00021450  00000+0  74148-3 0  1122
2 48662  53.1571 271.5074 0001244  90.1506 232.7720 15.29360238    11
STARLINK-2667           
1 48663C 21044AB  26112.28798611  .00054797  00000+0  17629-2 0  1127
2 48663  53.1612 261.2675 0001325  91.3741 320.2731 15.31660592    19
STARLINK-2666           
1 48666C 21044AE  26112.29215278  .00049490  00000+0  16670-2 0  1123
2 48666  53.1583 271.3275 0001260  89.1065 335.3179 15.30185720    16
STARLINK-2735           
1 48667C 21044AF  26112.31715278  .00045989  00000+0  15916-2 0  1123
2 48667  53.1551 271.0750 0001292  91.9850  85.6553 15.29311029    17
STARLINK-2738           
1 48668C 21044AG  26112.30534722  .00045908  00000+0  14753-2 0  1125
2 48668  53.1592 261.2389 0001039  67.4137 105.6698 15.31700172    14
STARLINK-2707           
1 48669C 21044AH  26112.29701389  .00053325  00000+0  17133-2 0  1126
2 48669  53.1587 261.4110 0001124  90.8504 344.7513 15.31703077    15
STARLINK-2763           
1 48670C 21044AJ  26112.28868056  .00057841  00000+0  18589-2 0  1125
2 48670  53.1580 261.5726 0001029 110.8285 227.2919 15.31693451    16
STARLINK-2745           
1 48671C 21044AK  26112.28868056  .00050785  00000+0  17111-2 0  1126
2 48671  53.1586 271.3460 0001040  93.0000 300.6375 15.30177380    16
STARLINK-2705           
1 48672C 21044AL  26112.30604167  .00053384  00000+0  17976-2 0  1128
2 48672  53.1574 261.5624 0001068  95.5932 335.0305 15.30195092    13
STARLINK-2711           
1 48673C 21044AM  26112.32618056  .00055901  00000+0  19321-2 0  1126
2 48673  53.1547 271.0506 0001158  98.2457 239.3406 15.29348999    13
STARLINK-2712           
1 48674C 21044AN  26112.30256944  .00047473  00000+0  15990-2 0  1122
2 48674  53.1578 271.2629 0001158  97.7960  76.3277 15.30188955    10
STARLINK-2746           
1 48676C 21044AQ  26112.26715278  .00045355  00000+0  15279-2 0  1126
2 48676  53.1586 271.4300 0001119  98.0042 275.7416 15.30185081    18
STARLINK-2615           
1 48678C 21044AS  26112.31923611  .00045613  00000+0  14664-2 0  1120
2 48678  53.1597 261.0195 0001097  90.4180  82.2381 15.31687560    15
STARLINK-2648           
1 48679C 21044AT  26112.32340278  .00051274  00000+0  17726-2 0  1126
2 48679  53.1577 271.0677 0001128  90.4329 349.5734 15.29342801    14
STARLINK-2725           
1 48681C 21044AV  26112.32409722  .00026845  00000+0  90411-3 0  1128
2 48681  53.1566 232.5936 0001170  92.8902 133.7377 15.30202038    10
STARLINK-2743           
1 48682C 21044AW  26112.27895833  .00031103  00000+0  10005-2 0  1128
2 48682  53.1584 222.4190 0001130  82.2170  77.1088 15.31677527    17
STARLINK-2756           
1 48683C 21044AX  26112.27826389  .00032653  00000+0  10506-2 0  1126
2 48683  53.1600 222.6138 0001355  94.6150 112.1741 15.31669553    11
STARLINK-2741           
1 48684C 21044AY  26112.27965278  .00041366  00000+0  13290-2 0  1122
2 48684  53.1585 235.3265 0001199  84.1176  10.6972 15.31711080    15
STARLINK-2751           
1 48685C 21044AZ  26112.26715278  .00035322  00000+0  11362-2 0  1128
2 48685  53.1594 222.3804 0001132  80.0802  39.8981 15.31675665    10
STARLINK-2629           
1 48686C 21044BA  26112.27340278  .00038293  00000+0  12311-2 0  1129
2 48686  53.1574 232.8079 0001250  94.6521  97.9816 15.31689794    19
STARLINK-2627           
1 48687C 21044BB  26112.28729167  .00029343  00000+0  94389-3 0  1121
2 48687  53.1585 222.3556 0001352  95.6256   6.8419 15.31676931    12
STARLINK-2742           
1 48688C 21044BC  26112.30395833  .00514260  00000+0  17102-1 0  1127
2 48688  53.1595 222.4718 0001179  86.9426 342.0195 15.30367361    13
STARLINK-2740           
1 48690C 21044BE  26112.31020833  .00030782  00000+0  98885-3 0  1127
2 48690  53.1586 232.5951 0001119  94.3124  93.8732 15.31719504    18
STARLINK-2750           
1 48691C 21044BF  26112.29979167  .00037632  00000+0  12091-2 0  1123
2 48691  53.1585 232.6209 0001213  95.1083 320.2921 15.31710498    13
STARLINK-2752           
1 48692C 21044BG  26112.32340278  .00025594  00000+0  82239-3 0  1129
2 48692  53.1579 232.3032 0001268  92.4404 350.5413 15.31714207    19
STARLINK-2618           
1 48693C 21044BH  26112.26854167  .00040344  00000+0  12964-2 0  1127
2 48693  53.1574 232.7017 0001175  96.9648  92.8134 15.31706088    12
STARLINK-2748           
1 48694C 21044BJ  26112.33173611  .00028050  00000+0  90124-3 0  1129
2 48694  53.1587 235.6509 0001280  96.6157 130.8169 15.31715625    12
STARLINK-2616           
1 48695C 21044BK  26112.30951389  .00036710  00000+0  11796-2 0  1122
2 48695  53.1586 235.0650 0001255 102.9131 309.1580 15.31708776    15
STARLINK-2753           
1 48696C 21044BL  26112.25118056  .00047270  00000+0  15203-2 0  1123
2 48696  53.1588 246.1347 0000737  69.6446 109.8446 15.31674366    19
STARLINK-3004           
1 48880C 21059B   26112.31229167  .01121900  00000+0  39194-1 0  1125
2 48880  97.6598 238.7024 0001482  80.9309 272.9131 15.29065169    14
STARLINK-3005           
1 48881C 21059C   26112.29701389  .00015820  00000+0  12340-2 0  1121
2 48881  97.6585 238.2586 0001980  86.0764  44.5479 15.01256094    11
STARLINK-3096           
1 49131C 21082B   26112.26645833  .00950110  00000+0  50196-2 0  1125
2 49131  69.9995 133.3037 0003815 277.6966 327.3507 15.79887682    16
STARLINK-3090           
1 49132C 21082C   26112.25187500 -.00019972  00000+0 -16734-2 0  1121
2 49132  70.0010 184.4927 0003596 268.5923 192.6984 14.98346200    19
STARLINK-3077           
1 49133C 21082D   26112.26854167 -.00023824  00000+0 -19962-2 0  1120
2 49133  70.0009 184.5772 0003582 267.7975 193.3144 14.98347250    12
STARLINK-3078           
1 49134C 21082E   26112.33520833 -.00043272  00000+0 -36263-2 0  1121
2 49134  70.0009 184.4123 0003737 269.9619 213.1529 14.98350762    13
STARLINK-3073           
1 49135C 21082F   26112.30395833 -.00027438  00000+0 -22995-2 0  1122
2 49135  70.0001 144.4714 0003413 269.9125 204.6788 14.98343186    15
STARLINK-3055           
1 49137C 21082H   26112.30395833 -.00045805  00000+0 -39195-2 0  1122
2 49137  70.0008 165.4137 0003367 269.4335 120.7791 14.97545085    15
STARLINK-3058           
1 49138C 21082J   26112.30881944 -.00038627  00000+0 -32368-2 0  1125
2 49138  70.0008 184.4823 0003604 268.7909  94.5206 14.98351264    16
STARLINK-3057           
1 49139C 21082K   26112.29006944 -.00030991  00000+0 -25972-2 0  1122
2 49139  70.0002 144.5136 0003181 274.0106 170.6427 14.98346028    17
STARLINK-3093           
1 49141C 21082M   26112.32756944 -.00044815  00000+0 -37555-2 0  1121
2 49141  70.0010 184.4389 0003718 266.7639 220.1546 14.98353257    12
STARLINK-3109           
1 49143C 21082P   26112.24979167 -.00042565  00000+0 -36416-2 0  1123
2 49143  70.0008 165.5541 0003743 267.4895 212.6321 14.97549795    11
STARLINK-3100           
1 49144C 21082Q   26112.26993056 -.00032004  00000+0 -26812-2 0  1125
2 49144  70.0012 184.5633 0003816 267.0624 314.0425 14.98357407    17
STARLINK-3119           
1 49145C 21082R   26112.31645833 -.00021811  00000+0 -18280-2 0  1123
2 49145  70.0004 144.4443 0003702 271.5127 112.9511 14.98336784    11
STARLINK-3116           
1 49146C 21082S   26112.24631944 -.00040486  00000+0 -34637-2 0  1127
2 49146  70.0009 165.5661 0004079 265.5839 218.3385 14.97547613    18
STARLINK-3071           
1 49147C 21082T   26112.28312500 -.00041008  00000+0 -34365-2 0  1125
2 49147  70.0003 144.5464 0003787 269.9324 227.3302 14.98350740    16
STARLINK-3048           
1 49148C 21082U   26112.25048611 -.00039964  00000+0 -34184-2 0  1129
2 49148  70.0007 165.5341 0003639 263.7332 287.6243 14.97557249    10
STARLINK-3102           
1 49151C 21082X   26112.31090278 -.00025450  00000+0 -21328-2 0  1127
2 49151  70.0004 144.4650 0003698 268.6352 130.8940 14.98342243    11
STARLINK-3072           
1 49153C 21082Z   26112.28798611 -.00032499  00000+0 -27236-2 0  1126
2 49153  70.0002 144.5293 0003563 269.2628  51.6777 14.98346017    10
STARLINK-3068           
1 49154C 21082AA  26112.31715278 -.00040526  00000+0 -34676-2 0  1125
2 49154  70.0008 165.3697 0003650 268.5943 304.5693 14.97543555    17
STARLINK-3060           
1 49155C 21082AB  26112.31506944 -.00024285  00000+0 -20352-2 0  1124
2 49155  70.0000 144.4532 0003850 265.6133 223.9057 14.98340894    17
STARLINK-3085           
1 49156C 21082AC  26112.25743056 -.00045187  00000+0 -37853-2 0  1123
2 49156  70.0002 144.5998 0003751 267.5017  23.6744 14.98366811    14
STARLINK-3051           
1 49157C 21082AD  26112.31923611 -.00034884  00000+0 -24543-2 0  1122
2 49157  69.9973 160.6474 0005693 232.8178 333.6832 15.04988675    15
